[{"OBJECT_NAME":"KONDOR-FKA NO. 1","OBJECT_ID":"2023-074A","EPOCH":"2026-03-07T10:13:03.575712","MEAN_MOTION":15.19772289,"ECCENTRICITY":0.00017305,"INCLINATION":97.4394,"RA_OF_ASC_NODE":262.4533,"ARG_OF_PERICENTER":84.6258,"MEAN_ANOMALY":275.5174,"EPHEMERIS_TYPE":0,"CLASSIFICATION_TYPE":"U","NORAD_CAT_ID":56756,"ELEMENT_SET_NO":999,"REV_AT_EPOCH":15423,"BSTAR":0.0003518818,"MEAN_MOTION_DOT":7.463e-5,"MEAN_MOTION_DDOT":0},{"OBJECT_NAME":"SPACEMOBILE-004","OBJECT_ID":"2024-163E","EPOCH":"2026-03-09T22:36:02.951712","MEAN_MOTION":15.21094037,"ECCENTRICITY":0.00066784,"INCLINATION":52.9754,"RA_OF_ASC_NODE":45.4081,"ARG_OF_PERICENTER":208.0587,"MEAN_ANOMALY":152.0048,"EPHEMERIS_TYPE":0,"CLASSIFICATION_TYPE":"U","NORAD_CAT_ID":61049,"ELEMENT_SET_NO":999,"REV_AT_EPOCH":8266,"BSTAR":0.0008716662,"MEAN_MOTION_DOT":0.00019363,"MEAN_MOTION_DDOT":0}]
